BEIDOU 3 (C01)          
1 36287U 10001A   21343.93317591 -.00000283  00000+0  00000+0 0  9991
2 36287   1.7662  44.0495 0001277  50.7981 100.3165  1.00266900 43617
BEIDOU 5 (C06)          
1 36828U 10036A   21343.81161935 -.00000057  00000+0  00000+0 0  9995
2 36828  54.1810 177.9741 0023682 174.3511 123.1500  1.00253039 41670
BEIDOU 6 (C04)          
1 37210U 10057A   21343.93710074 -.00000113  00000+0  00000+0 0  9994
2 37210   0.8314  45.6478 0007064 160.6716   9.9866  1.00270043 40738
BEIDOU 7 (C07)          
1 37256U 10068A   21343.54203117 -.00000210  00000+0  00000+0 0  9996
2 37256  50.5543 291.9180 0015956 190.5413 257.4194  1.00253436 40242
BEIDOU 8 (C08)          
1 37384U 11013A   21343.83850616 -.00000198  00000+0  00000+0 0  9998
2 37384  60.0211  56.1489 0019566 190.4623 238.5583  1.00259866 39128
BEIDOU 9 (C09)          
1 37763U 11038A   21343.87502829 -.00000025  00000+0  00000+0 0  9999
2 37763  54.4664 180.4413 0086178 225.3927  83.7149  1.00274094 38097
BEIDOU 10 (C10)         
1 37948U 11073A   21343.70401943 -.00000153  00000+0  00000+0 0  9992
2 37948  50.6651 291.5414 0077318 218.9900 274.2744  1.00254112 36855
BEIDOU 11 (C05)         
1 38091U 12008A   21343.91686608  .00000056  00000+0  00000+0 0  9998
2 38091   1.9368  71.1125 0004459 268.1256 128.3910  1.00272154 35935
BEIDOU 12 (C11)         
1 38250U 12018A   21343.86409899 -.00000091  00000+0  00000+0 0  9995
2 38250  56.7344 359.8230 0024943 250.2417 289.0082  1.86234364 65559
BEIDOU 13 (C12)         
1 38251U 12018B   21343.26142030 -.00000091  00000+0  00000+0 0  9991
2 38251  56.6543 359.1798 0015830 253.1082 286.3739  1.86234179 65549
BEIDOU 15 (C14)         
1 38775U 12050B   21343.59789439  .00000037  00000+0  00000+0 0  9993
2 38775  55.2950 118.0802 0011495 327.3439 274.7541  1.86231306 62928
BEIDOU 16 (C02)         
1 38953U 12059A   21343.92192475 -.00000176  00000+0  00000+0 0  9990
2 38953   1.5210  84.4029 0010645 276.9701 133.4077  1.00269078 33503
BEIDOU 17 (C31)         
1 40549U 15019A   21342.89140476 -.00000184  00000+0  00000+0 0  9991
2 40549  52.2115 314.9687 0037008 191.5336 348.0757  1.00283896 24528
BEIDOU 18 (C57)         
1 40748U 15037A   21343.75632581 -.00000092  00000+0  00000+0 0  9999
2 40748  55.9136 358.1442 0002941 320.7759 100.2335  1.86233384 43380
BEIDOU 19 (C58)         
1 40749U 15037B   21343.72986997 -.00000092  00000+0  00000+0 0  9990
2 40749  55.9160 358.1359 0005962 294.3904 244.1878  1.86232187 43378
BEIDOU 20 (C18)         
1 40938U 15053A   21343.78080547 -.00000150  00000+0  00000+0 0  9995
2 40938  51.7966 278.0534 0043372 196.0030 340.3722  1.00288814 22802
BEIDOU IGSO-6 (C13)     
1 41434U 16021A   21342.71794381 -.00000179  00000+0  00000+0 0  9994
2 41434  57.8232  54.8195 0045037 214.1041 163.1828  1.00279163 20920
BEIDOU-2 G7 (C03)       
1 41586U 16037A   21343.92724507 -.00000355  00000+0  00000+0 0  9992
2 41586   1.5614  65.9299 0007885   2.8380  94.4778  1.00273174 20244
BEIDOU-3 M1 (C19)       
1 43001U 17069A   21343.93886052  .00000037  00000+0  00000+0 0  9993
2 43001  55.4487 118.0434 0007225 286.7384 340.0722  1.86231735 27865
BEIDOU-3 M2 (C20)       
1 43002U 17069B   21343.87019126  .00000037  00000+0  00000+0 0  9997
2 43002  55.4488 118.0815 0005661 318.6764 305.3230  1.86231417 27853
BEIDOU-3 M3 (C27)       
1 43107U 18003A   21343.76344903 -.00000094  00000+0  00000+0 0  9998
2 43107  55.3600 359.1457 0003321  43.5925 314.8000  1.86232520 26617
BEIDOU-3 M4 (C28)       
1 43108U 18003B   21343.69655256 -.00000094  00000+0  00000+0 0  9997
2 43108  55.3544 359.1382 0004228 248.2741 110.2205  1.86230945 26613
BEIDOU-3 M5 (C21)       
1 43207U 18018A   21343.60856557  .00000037  00000+0  00000+0 0  9997
2 43207  55.4080 118.1749 0003920   0.0789 359.8910  1.86231609 26008
BEIDOU-3 M6 (C22)       
1 43208U 18018B   21342.60138171  .00000033  00000+0  00000+0 0  9998
2 43208  55.4069 118.2138 0005300 301.3367  58.5764  1.86231629 25980
BEIDOU-3 M7 (C29)       
1 43245U 18029A   21343.89698030 -.00000093  00000+0  00000+0 0  9995
2 43245  55.2833 356.9223 0001332 258.1978 100.0324  1.86232651 25152
BEIDOU-3 M8 (C30)       
1 43246U 18029B   21343.48588932 -.00000092  00000+0  10000-3 0  9994
2 43246  55.2807 356.9665 0003921 333.6063 155.3828  1.86232972 25141
BEIDOU IGSO-7 (C16)     
1 43539U 18057A   21343.81319075 -.00000072  00000+0  00000+0 0  9990
2 43539  55.0620 177.3882 0040086 220.9620  86.5513  1.00268160 12600
BEIDOU-3 M9 (C23)       
1 43581U 18062A   21343.87473003 -.00000020  00000+0  00000+0 0  9994
2 43581  54.3365 238.5812 0004050 301.1111 299.0395  1.86231896 22897
BEIDOU-3 M10 (C24)      
1 43582U 18062B   21343.73964797 -.00000019  00000+0  00000+0 0  9993
2 43582  54.3361 238.5753 0006488   1.3237 239.8413  1.86232440 22892
BEIDOU-3 M11 (C25)      
1 43602U 18067A   21343.79332838 -.00000017  00000+0  00000+0 0  9990
2 43602  54.4155 237.1716 0007715   4.6760 314.2656  1.86231574 22380
BEIDOU-3 M12 (C26)      
1 43603U 18067B   21343.13766818 -.00000011  00000+0  00000+0 0  9992
2 43603  54.4126 237.1616 0004891 354.0749 155.6944  1.86231503 22399
BEIDOU-3 M13 (C32)      
1 43622U 18072A   21343.80232764  .00000036  00000+0  00000+0 0  9997
2 43622  55.3743 117.7309 0004263 275.1232 350.1385  1.86231553 21913
BEIDOU-3 M14 (C33)      
1 43623U 18072B   21343.66793699  .00000036  00000+0  00000+0 0  9991
2 43623  55.3758 117.7268 0002264 324.6198 300.7768  1.86231608 21911
BEIDOU-3 M15 (C34)      
1 43647U 18078A   21343.52787377 -.00000093  00000+0  10000-3 0  9993
2 43647  55.1768 357.1085 0006255 346.7748  79.9909  1.86232450 21427
BEIDOU-3 M16 (C35)      
1 43648U 18078B   21343.77157725 -.00000093  00000+0  00000+0 0  9994
2 43648  55.1733 357.1087 0003835 352.3168 145.9882  1.86232309 21441
BEIDOU-3 G1 (C59)       
1 43683U 18085A   21343.93308869 -.00000278  00000+0  00000+0 0  9991
2 43683   0.8578 200.6791 0004597  41.0554 312.9978  1.00276249 11511
BEIDOU-3 M17 (C36)      
1 43706U 18093A   21343.18106953 -.00000013  00000+0  00000+0 0  9990
2 43706  54.4170 238.4765 0008789 284.0865  75.8863  1.86231822 20791
BEIDOU-3 M18 (C37)      
1 43707U 18093B   21343.55037797 -.00000017  00000+0  00000+0 0  9995
2 43707  54.4184 238.4543 0008506 308.7109  29.9050  1.86232236 20780
BEIDOU-3 IGSO-1 (C38)   
1 44204U 19023A   21341.36991135 -.00000236  00000+0  00000+0 0  9997
2 44204  56.2768  55.0481 0023247 190.4360  82.9369  1.00269068  9787
BEIDOU-2 G8             
1 44231U 19027A   21343.93396088 -.00000249  00000+0  00000+0 0  9996
2 44231   0.4346  57.7707 0006427 154.2616 347.5952  1.00268343  9528
BEIDOU-3 IGSO-2 (C39)   
1 44337U 19035A   21343.92890221 -.00000073  00000+0  00000+0 0  9994
2 44337  55.0995 173.4192 0020749 176.8911 181.2575  1.00258460  9147
BEIDOU-3 M23 (C45)      
1 44542U 19061A   21343.53504209 -.00000017  00000+0  10000-3 0  9999
2 44542  54.6429 238.5691 0009302 341.4289 299.4027  1.86231332 15042
BEIDOU-3 M24 (C46)      
1 44543U 19061B   21343.67774124 -.00000018  00000+0  10000-3 0  9991
2 44543  54.6424 238.5344 0006383 332.5831 314.9907  1.86231897 15049
BEIDOU-3 IGSO-3         
1 44709U 19073A   21343.78525361 -.00000198  00000+0  00000+0 0  9991
2 44709  57.5699 298.3481 0018855 187.3852 355.0699  1.00264538  7905
BEIDOU-3 M21            
1 44793U 19078A   21343.49533986 -.00000093  00000+0  10000-3 0  9998
2 44793  55.0255 357.1563 0005759 355.6973   3.4617  1.86232342 13900
BEIDOU-3 M22            
1 44794U 19078B   21343.62939443 -.00000093  00000+0  00000+0 0  9997
2 44794  55.0008 357.1467 0003896 345.2145  15.1230  1.86232812 13910
BEIDOU-3 M19            
1 44864U 19090A   21343.73293557  .00000037  00000+0  00000+0 0  9997
2 44864  55.3086 117.9538 0014579 262.8947   1.4360  1.86231861 13490
BEIDOU-3 M20            
1 44865U 19090B   21343.60201076  .00000036  00000+0  00000+0 0  9998
2 44865  55.3109 117.9898 0012699 279.2472 347.2001  1.86231830 13468
BEIDOU-3 G2             
1 45344U 20017A   21343.84935909 -.00000144  00000+0  00000+0 0  9998
2 45344   2.2262 343.3724 0001379 193.3668 287.8902  1.00270989  6714
BEIDOU-3 G3             
1 45807U 20040A   21343.92724507 -.00000355  00000+0  00000+0 0  9991
2 45807   1.8777 299.8504 0009348 345.0259 238.3466  1.00274101  5536
